[{"OBJECT_NAME":"PCSAT (NO-44)","OBJECT_ID":"2001-043C","EPOCH":"2026-03-07T04:24:17.942400","MEAN_MOTION":14.31910626,"ECCENTRICITY":0.0007005,"INCLINATION":67.0508,"RA_OF_ASC_NODE":148.0942,"ARG_OF_PERICENTER":265.2738,"MEAN_ANOMALY":94.7564,"EPHEMERIS_TYPE":0,"CLASSIFICATION_TYPE":"U","NORAD_CAT_ID":26931,"ELEMENT_SET_NO":999,"REV_AT_EPOCH":27584,"BSTAR":0.00010989,"MEAN_MOTION_DOT":2.12e-6,"MEAN_MOTION_DDOT":0},{"OBJECT_NAME":"PROBA-1","OBJECT_ID":"2001-049B","EPOCH":"2026-03-07T05:37:18.927840","MEAN_MOTION":15.07003752,"ECCENTRICITY":0.0056842,"INCLINATION":97.9623,"RA_OF_ASC_NODE":71.2264,"ARG_OF_PERICENTER":107.1511,"MEAN_ANOMALY":253.595,"EPHEMERIS_TYPE":0,"CLASSIFICATION_TYPE":"U","NORAD_CAT_ID":26958,"ELEMENT_SET_NO":999,"REV_AT_EPOCH":32826,"BSTAR":0.00014845,"MEAN_MOTION_DOT":2.234e-5,"MEAN_MOTION_DDOT":0},{"OBJECT_NAME":"SPOT 5","OBJECT_ID":"2002-021A","EPOCH":"2026-03-07T02:19:47.297280","MEAN_MOTION":14.54657432,"ECCENTRICITY":0.0128746,"INCLINATION":97.9992,"RA_OF_ASC_NODE":109.4256,"ARG_OF_PERICENTER":233.6378,"MEAN_ANOMALY":125.2884,"EPHEMERIS_TYPE":0,"CLASSIFICATION_TYPE":"U","NORAD_CAT_ID":27421,"ELEMENT_SET_NO":999,"REV_AT_EPOCH":24800,"BSTAR":0.00012358,"MEAN_MOTION_DOT":5.4e-6,"MEAN_MOTION_DDOT":0},{"OBJECT_NAME":"FENGYUN 1D","OBJECT_ID":"2002-024B","EPOCH":"2026-03-07T02:55:08.532192","MEAN_MOTION":14.10209196,"ECCENTRICITY":0.0015712,"INCLINATION":98.9664,"RA_OF_ASC_NODE":116.8564,"ARG_OF_PERICENTER":166.6899,"MEAN_ANOMALY":193.4689,"EPHEMERIS_TYPE":0,"CLASSIFICATION_TYPE":"U","NORAD_CAT_ID":27431,"ELEMENT_SET_NO":999,"REV_AT_EPOCH":22509,"BSTAR":6.4051e-5,"MEAN_MOTION_DOT":6.9e-7,"MEAN_MOTION_DDOT":0},{"OBJECT_NAME":"SAUDISAT 1C (SO-50)","OBJECT_ID":"2002-058C","EPOCH":"2026-03-07T04:32:45.881088","MEAN_MOTION":14.82770448,"ECCENTRICITY":0.0075199,"INCLINATION":64.552,"RA_OF_ASC_NODE":84.5051,"ARG_OF_PERICENTER":281.1523,"MEAN_ANOMALY":78.1135,"EPHEMERIS_TYPE":0,"CLASSIFICATION_TYPE":"U","NORAD_CAT_ID":27607,"ELEMENT_SET_NO":999,"REV_AT_EPOCH":24933,"BSTAR":0.00026196,"MEAN_MOTION_DOT":2.074e-5,"MEAN_MOTION_DDOT":0},{"OBJECT_NAME":"CORIOLIS","OBJECT_ID":"2003-001A","EPOCH":"2026-03-07T00:31:33.354912","MEAN_MOTION":14.19911487,"ECCENTRICITY":0.0014663,"INCLINATION":98.7162,"RA_OF_ASC_NODE":74.4553,"ARG_OF_PERICENTER":143.8235,"MEAN_ANOMALY":216.3936,"EPHEMERIS_TYPE":0,"CLASSIFICATION_TYPE":"U","NORAD_CAT_ID":27640,"ELEMENT_SET_NO":999,"REV_AT_EPOCH":19972,"BSTAR":9.8034e-5,"MEAN_MOTION_DOT":1.65e-6,"MEAN_MOTION_DDOT":0},{"OBJECT_NAME":"CUTE-1 (CO-55)","OBJECT_ID":"2003-031E","EPOCH":"2026-03-06T23:08:53.575872","MEAN_MOTION":14.24263294,"ECCENTRICITY":0.0010585,"INCLINATION":98.678,"RA_OF_ASC_NODE":75.7971,"ARG_OF_PERICENTER":119.5034,"MEAN_ANOMALY":240.7202,"EPHEMERIS_TYPE":0,"CLASSIFICATION_TYPE":"U","NORAD_CAT_ID":27844,"ELEMENT_SET_NO":999,"REV_AT_EPOCH":17712,"BSTAR":0.00020017,"MEAN_MOTION_DOT":4.18e-6,"MEAN_MOTION_DDOT":0},{"OBJECT_NAME":"CUBESAT XI-IV (CO-57)","OBJECT_ID":"2003-031J","EPOCH":"2026-03-06T23:20:06.708768","MEAN_MOTION":14.23558791,"ECCENTRICITY":0.001027,"INCLINATION":98.6809,"RA_OF_ASC_NODE":75.5995,"ARG_OF_PERICENTER":135.9414,"MEAN_ANOMALY":224.2584,"EPHEMERIS_TYPE":0,"CLASSIFICATION_TYPE":"U","NORAD_CAT_ID":27848,"ELEMENT_SET_NO":999,"REV_AT_EPOCH":17683,"BSTAR":0.00016835,"MEAN_MOTION_DOT":3.4e-6,"MEAN_MOTION_DDOT":0},{"OBJECT_NAME":"MOZHAETS 4 (RS22)","OBJECT_ID":"2003-042A","EPOCH":"2026-03-07T05:13:59.966688","MEAN_MOTION":14.73244933,"ECCENTRICITY":0.0010383,"INCLINATION":98.3432,"RA_OF_ASC_NODE":247.7103,"ARG_OF_PERICENTER":228.6467,"MEAN_ANOMALY":246.648,"EPHEMERIS_TYPE":0,"CLASSIFICATION_TYPE":"U","NORAD_CAT_ID":27939,"ELEMENT_SET_NO":999,"REV_AT_EPOCH":20053,"BSTAR":0.00025104,"MEAN_MOTION_DOT":1.569e-5,"MEAN_MOTION_DDOT":0},{"OBJECT_NAME":"IRS-P6 (RESOURCESAT-1)","OBJECT_ID":"2003-046A","EPOCH":"2026-03-07T05:34:19.058592","MEAN_MOTION":14.36115836,"ECCENTRICITY":0.0062967,"INCLINATION":98.2046,"RA_OF_ASC_NODE":107.6771,"ARG_OF_PERICENTER":288.6261,"MEAN_ANOMALY":148.1512,"EPHEMERIS_TYPE":0,"CLASSIFICATION_TYPE":"U","NORAD_CAT_ID":28051,"ELEMENT_SET_NO":999,"REV_AT_EPOCH":16589,"BSTAR":0.00013152,"MEAN_MOTION_DOT":3.5e-6,"MEAN_MOTION_DDOT":0},{"OBJECT_NAME":"SAUDISAT 2","OBJECT_ID":"2004-025F","EPOCH":"2026-03-07T00:33:10.079712","MEAN_MOTION":14.56613337,"ECCENTRICITY":0.0023586,"INCLINATION":98.5497,"RA_OF_ASC_NODE":63.3784,"ARG_OF_PERICENTER":249.726,"MEAN_ANOMALY":110.1401,"EPHEMERIS_TYPE":0,"CLASSIFICATION_TYPE":"U","NORAD_CAT_ID":28371,"ELEMENT_SET_NO":999,"REV_AT_EPOCH":15087,"BSTAR":0.0001073,"MEAN_MOTION_DOT":4.3e-6,"MEAN_MOTION_DDOT":0},{"OBJECT_NAME":"COSMOS 2407","OBJECT_ID":"2004-028A","EPOCH":"2026-03-07T05:01:50.882016","MEAN_MOTION":13.7632472,"ECCENTRICITY":0.0039507,"INCLINATION":82.9636,"RA_OF_ASC_NODE":150.3617,"ARG_OF_PERICENTER":175.6427,"MEAN_ANOMALY":213.671,"EPHEMERIS_TYPE":0,"CLASSIFICATION_TYPE":"U","NORAD_CAT_ID":28380,"ELEMENT_SET_NO":999,"REV_AT_EPOCH":8585,"BSTAR":7.3314e-5,"MEAN_MOTION_DOT":8.7e-7,"MEAN_MOTION_DDOT":0},{"OBJECT_NAME":"COSMOS 2414","OBJECT_ID":"2005-002A","EPOCH":"2026-03-07T04:00:29.160288","MEAN_MOTION":13.87915167,"ECCENTRICITY":0.0038684,"INCLINATION":82.9485,"RA_OF_ASC_NODE":120.8266,"ARG_OF_PERICENTER":259.8206,"MEAN_ANOMALY":99.8593,"EPHEMERIS_TYPE":0,"CLASSIFICATION_TYPE":"U","NORAD_CAT_ID":28521,"ELEMENT_SET_NO":999,"REV_AT_EPOCH":6966,"BSTAR":7.1598e-5,"MEAN_MOTION_DOT":1.01e-6,"MEAN_MOTION_DDOT":0},{"OBJECT_NAME":"INMARSAT 4-F1","OBJECT_ID":"2005-009A","EPOCH":"2026-03-06T18:13:39.924768","MEAN_MOTION":1.00272777,"ECCENTRICITY":0.0002864,"INCLINATION":5.0305,"RA_OF_ASC_NODE":42.7326,"ARG_OF_PERICENTER":330.9087,"MEAN_ANOMALY":242.3633,"EPHEMERIS_TYPE":0,"CLASSIFICATION_TYPE":"U","NORAD_CAT_ID":28628,"ELEMENT_SET_NO":999,"REV_AT_EPOCH":7664,"BSTAR":0,"MEAN_MOTION_DOT":3.1e-7,"MEAN_MOTION_DDOT":0},{"OBJECT_NAME":"HAMSAT (VO-52)","OBJECT_ID":"2005-017B","EPOCH":"2026-03-07T00:32:02.636736","MEAN_MOTION":15.08728167,"ECCENTRICITY":0.0020353,"INCLINATION":97.9993,"RA_OF_ASC_NODE":84.7891,"ARG_OF_PERICENTER":27.5552,"MEAN_ANOMALY":332.675,"EPHEMERIS_TYPE":0,"CLASSIFICATION_TYPE":"U","NORAD_CAT_ID":28650,"ELEMENT_SET_NO":999,"REV_AT_EPOCH":13135,"BSTAR":0.00037285,"MEAN_MOTION_DOT":5.81e-5,"MEAN_MOTION_DDOT":0},{"OBJECT_NAME":"NOAA 18","OBJECT_ID":"2005-018A","EPOCH":"2026-03-07T04:56:57.599808","MEAN_MOTION":14.13710146,"ECCENTRICITY":0.0015318,"INCLINATION":98.8159,"RA_OF_ASC_NODE":147.3483,"ARG_OF_PERICENTER":82.0441,"MEAN_ANOMALY":278.2469,"EPHEMERIS_TYPE":0,"CLASSIFICATION_TYPE":"U","NORAD_CAT_ID":28654,"ELEMENT_SET_NO":999,"REV_AT_EPOCH":7190,"BSTAR":5.954e-5,"MEAN_MOTION_DOT":6.9e-7,"MEAN_MOTION_DDOT":0},{"OBJECT_NAME":"SJ-7","OBJECT_ID":"2005-024A","EPOCH":"2026-03-07T00:53:33.486432","MEAN_MOTION":15.19900744,"ECCENTRICITY":0.0017046,"INCLINATION":97.7405,"RA_OF_ASC_NODE":93.4546,"ARG_OF_PERICENTER":32.4963,"MEAN_ANOMALY":327.7316,"EPHEMERIS_TYPE":0,"CLASSIFICATION_TYPE":"U","NORAD_CAT_ID":28737,"ELEMENT_SET_NO":999,"REV_AT_EPOCH":13250,"BSTAR":0.00045163,"MEAN_MOTION_DOT":9.668e-5,"MEAN_MOTION_DDOT":0}]
